NOAA 2 (ITOS-D)
1 06235U 72082A   26026.85095341 -.00000022  00000-0  15698-3 0  9993
2 06235 102.0184  43.8238 0004272  82.5459  90.1919 12.53210265437246
SOLRAD-7B
1 01291U 65016D   26026.49385287  .00000084  00000-0  10121-3 0  9993
2 01291  70.0784 177.5028 0023312 302.7944  57.0916 13.94955444 96945
OSCAR-7 (AO-7)
1 07530U 74089B   26026.97315935 -.00000020  00000-0  16314-3 0  9992
2 07530 101.9969  38.7166 0012329  41.7625 346.0721 12.53695360342827
UOSAT-2 (UO-11)
1 14781U 84021B   26026.84764129  .00003138  00000-0  32829-3 0  9995
2 14781  97.7873 354.1972 0006206 298.1762  61.8829 14.90336000236072
FLTSATCOM-7 (USA-20)
1 17181U 86096A   26027.19906044  .00000045  00000-0  00000-0 0  9996
2 17181  12.8142 340.9710 0043918 325.6541 123.8052  0.98926752150570
FLTSATCOM-8 (USA-46)
1 20253U 89077A   26027.23760897 -.00000361  00000-0  00000-0 0  9993
2 20253  12.4597 352.0095 0008704 313.2509  32.4464  1.00265968259149
OSCAR 16 (PACSAT)
1 20439U 90005D   26027.00352970  .00000261  00000-0  11052-3 0  9996
2 20439  98.8703  59.2535 0009593 287.6981  95.9174 14.33883516881702
LUSAT (LO-19)
1 20442U 90005G   26027.03756135  .00000276  00000-0  11563-3 0  9997
2 20442  98.8952  44.8843 0010545 259.1389 100.8608 14.34068758882162
UFO 2 (USA 95)
1 22787U 93056A   26027.07568706  .00000130  00000-0  00000-0 0  9999
2 22787  11.8449   4.3198 0007811 318.3110 219.6670  1.00273601117138
EYESAT-1 (AO-27)
1 22825U 93061C   26027.17120621  .00000230  00000-0  10481-3 0  9997
2 22825  98.7073  94.5311 0008982 148.4609 211.7114 14.30897825686832
ITAMSAT (IO-26) 
1 22826U 93061D   26027.12253819  .00000254  00000-0  11276-3 0  9998
2 22826  98.7021  94.3860 0009720 133.7264 226.4726 14.31320508687134
UFO 3 (USA 104)
1 23132U 94035A   26027.21123449 -.00000077  00000-0  00000-0 0  9990
2 23132  12.3041   6.5576 0006496 279.9187 269.0816  1.00263319130282
RADIO ROSTO (RS-15)
1 23439U 94085A   26027.18903646 -.00000047  00000-0 -13697-3 0  9993
2 23439  64.8144 171.2479 0151237  29.9308 331.0158 11.27583435280001
UFO 4 (USA 108)
1 23467U 95003A   26027.17552763 -.00000015  00000-0  00000-0 0  9999
2 23467   9.6423  13.6873 0003175 300.3222  48.0013  1.00275113113533
UFO 7 (USA 127)
1 23967U 96042A   26026.77753304 -.00000207  00000-0  00000-0 0  9990
2 23967  10.9793  17.8384 0002754 133.0095 229.1811  1.00253043108076
JAS-2 (FO-29)
1 24278U 96046B   26027.24421949  .00000012  00000-0  44382-4 0  9998
2 24278  98.5432 255.2596 0350908 102.0717 261.9967 13.53265833454106
UFO 8 (USA 138)
1 25258U 98016A   26027.07953110 -.00000218  00000-0  00000-0 0  9991
2 25258  10.9583  23.6035 0008618 262.8201  17.3162  1.00293852102444
TECHSAT-1B (GO-32)
1 25397U 98043D   26026.94465307  .00000179  00000-0  97657-4 0  9999
2 25397  98.9970  16.2119 0000278 245.6363 114.4786 14.24393072431224
ISS (ZARYA)
1 25544U 98067A   26027.14328214  .00011252  00000-0  21756-3 0  9997
2 25544  51.6321 277.7306 0011150  34.3982 325.7726 15.48216781549899
UFO 10 (USA 146)
1 25967U 99063A   26026.98239228 -.00000183  00000-0  00000-0 0  9998
2 25967   9.8391  27.9545 0006145 271.8441 157.2441  1.00273257 95933
PCSAT (NO-44)
1 26931U 01043C   26026.99872037  .00000269  00000-0  13121-3 0  9998
2 26931  67.0490 249.4344 0007107 266.9191  93.1097 14.31887111270236
PROBA-1
1 26958U 01049B   26027.25557269  .00002909  00000-0  19377-3 0  9992
2 26958  97.9623  30.9265 0054156 238.3342 121.2596 15.06783842322398
SAUDISAT-1C (SO-50)
1 27607U 02058C   26027.20418054  .00002678  00000-0  33458-3 0  9997
2 27607  64.5516 205.0558 0073974 288.1574  71.1487 14.82605442243554
CUTE-1 (CO-55)
1 27844U 03031E   26026.97441760  .00000592  00000-0  27561-3 0  9996
2 27844  98.6771  37.2964 0008724 231.9633 128.0759 14.24227680171573
CUBESAT XI-IV (CO-57)
1 27848U 03031J   26025.97897264  .00000556  00000-0  26357-3 0  9995
2 27848  98.6800  36.1404 0008455 255.2958 104.7284 14.23527635171146
MOZHAYETS-4 (RS-22)
1 27939U 03042A   26027.29711089  .00000960  00000-0  15734-3 0  9991
2 27939  98.3398 207.7192 0011320   1.7117 100.8471 14.73122750194809
UFO 11 (USA 174)
1 28117U 03057A   26027.06399760 -.00000097  00000-0  00000-0 0  9998
2 28117   8.7843  34.5015 0004077 258.5747 291.6938  1.00270641 81036
CUBESAT XI-V (CO-58)
1 28895U 05043F   26026.84919727  .00003115  00000-0  50254-3 0  9996
2 28895  98.2757 179.7068 0013280 295.8189  64.1648 14.72117084 80952
CAPE-1
1 31130U 07012P   26026.89453296  .00002257  00000-0  41487-3 0  9993
2 31130  98.4296 357.7811 0084675 151.4036 209.1849 14.64404648997661
CUTE-1.7+APD II (CO-65)
1 32785U 08021C   26027.24339653  .00008913  00000-0  58683-3 0  9992
2 32785  97.8138   6.0146 0010390 138.7104 221.4911 15.07730993963942
SEEDS-II (CO-66)
1 32791U 08021J   26026.94749465  .00027229  00000-0  10223-2 0  9999
2 32791  97.7481  18.7201 0005634  87.7025 272.4858 15.27160883965698
YUBILEINY (RS-30)
1 32953U 08025A   26027.26140817 -.00000006  00000-0 -11456-3 0  9991
2 32953  82.5005  83.1086 0018323 257.6290 102.2739 12.43174073802183
KKS-1 (KISEKI)
1 33499U 09002H   26027.29989353  .00003173  00000-0  40031-3 0  9999
2 33499  98.1185 307.5709 0008846  35.4897 324.6903 14.82649657915313
SWISSCUBE
1 35932U 09051B   26027.28221080  .00002479  00000-0  50273-3 0  9999
2 35932  98.4131 292.6840 0005733 298.5405  61.5218 14.62129525868565
BEESAT
1 35933U 09051C   26027.22065821  .00002107  00000-0  43551-3 0  9992
2 35933  98.4062 292.5440 0004456 317.4969  42.5885 14.61423138868599
ITUPSAT-1
1 35935U 09051E   26027.29468918  .00001940  00000-0  41275-3 0  9990
2 35935  98.4150 291.9547 0006818 324.8103  35.2646 14.60166980868172
PROBA-2
1 36037U 09059B   26027.03965409  .00000559  00000-0  14101-3 0  9994
2 36037  98.2393 212.3618 0013168   1.9024 358.2221 14.54756517861006
XIWANG-1 (HOPE-1)
1 36122U 09072B   26027.26532358 -.00000275  00000-0 -60496-3 0  9997
2 36122 100.3846 343.4703 0007232 191.5987 168.4961 13.16433466774466
EWS-G2 (GOES-15)
1 36411U 10008A   26027.20302748  .00000046  00000-0  00000-0 0  9997
2 36411   0.9219  85.8196 0005299 193.7370 341.4826  1.00273851 58222
TISAT-1
1 36799U 10035E   26026.60978863  .00028671  00000-0  11311-2 0  9999
2 36799  98.0619 321.3750 0004341  51.9418 308.2209 15.25510964846077
HORYU-2
1 38340U 12025D   26027.26793318  .00006596  00000-0  69059-3 0  9992
2 38340  98.1961 154.7317 0007453 284.4325  75.6064 14.89939697727738
AAUSAT-3
1 39087U 13009B   26027.04144108  .00001382  00000-0  45479-3 0  9995
2 39087  98.3652 214.0664 0010502 276.8426  83.1568 14.39714004676865
STRAND-1
1 39090U 13009E   26026.44058936  .00000626  00000-0  22540-3 0  9999
2 39090  98.3844 210.1917 0007709 298.3076  61.7332 14.37052949676700
CUBEBUG-1 (CAPITAN BETO)
1 39153U 13018D   26027.31425123  .00007647  00000-0  68372-3 0  9995
2 39153  98.1459 181.2429 0010621 252.8112 107.1946 14.96145966689997
PROBA-V
1 39159U 13021A   26026.91546773  .00000160  00000-0  88403-4 0  9996
2 39159  98.3441  12.6077 0004172 170.4098 189.7162 14.23561944661011
ZACUBE-1 (TSHEPISOSAT)
1 39417U 13066B   26026.43877853  .00010508  00000-0  83995-3 0  9992
2 39417  97.8124 348.0748 0042020   5.0283 355.1353 14.99714196659474
TRITON-1
1 39427U 13066M   26027.25648270  .00006265  00000-0  76200-3 0  9999
2 39427  97.8314 300.3034 0090859 334.5669  25.1086 14.80882899653226
DELFI-N3XT
1 39428U 13066N   26027.26996991  .00016723  00000-0  15273-2 0  9999
2 39428  97.8350 307.9327 0076705 316.4106  43.1069 14.92867385653580
GOMX-1
1 39430U 13066Q   26027.27480086  .00004112  00000-0  62571-3 0  9999
2 39430  97.6587 236.5595 0129824 169.4005 190.9987 14.68891697649224
HUMSAT-D
1 39433U 13066T   26026.95499972  .00259200  00000-0  20022-2 0  9994
2 39433  97.4953  36.3047 0005883  47.4423 312.7335 15.71123923664859
VELOX-PII
1 39438U 13066Y   26026.85554711  .00005653  00000-0  54638-3 0  9993
2 39438  97.8577 338.3042 0055627  91.0291 269.7302 14.92031621656759
CUBEBUG-2 (LO-74)
1 39440U 13066AA  26026.80119852  .00006942  00000-0  65904-3 0  9994
2 39440  97.8755 335.4445 0060305 134.6484 225.9675 14.92451500655895
FUNCUBE-1 (AO-73)
1 39444U 13066AE  26026.88952770  .00014857  00000-0  98015-3 0  9993
2 39444  97.8120 355.7683 0036978 327.2686  32.6250 15.06994387658365
UWE-3
1 39446U 13066AG  26026.58863482  .00007504  00000-0  66295-3 0  9999
2 39446  97.8529 341.9972 0051926  71.9403 288.7466 14.95599983656404
UNISAT-6
1 40012U 14033C   26027.30225463  .00007592  00000-0  83185-3 0  9991
2 40012  97.7652 182.7467 0046080 171.5037 188.6971 14.87254136625219
DUCHIFAT-1
1 40021U 14033M   26027.05234098  .00061708  00000-0  13029-2 0  9995
2 40021  98.0727  68.7260 0005265 212.3833 147.7091 15.44971196633830
FUNCUBE-3 (EO-79)
1 40025U 14033R   26026.79808969  .00014643  00000-0  77502-3 0  9996
2 40025  98.0997  28.2930 0009223   2.6870 357.4409 15.15518553631593
SMAP
1 40376U 15003A   26027.29343730  .00001004  00000-0  20318-3 0  9999
2 40376  98.1299  36.3647 0001415  91.4377 268.6987 14.63418325587015
LILACSAT-2
1 40908U 15049K   26027.18772653  .00023909  00000-0  48380-3 0  9995
2 40908  97.4874  59.0100 0009094  53.6391 306.5696 15.46400072573926
LAPAN-A2 (IO-86)
1 40931U          25360.30710720  .00000000  00000-0  12800-3 0    00
2 40931   6.0006 332.5373 0012733 338.8432   8.1437 14.79075515    01
LQSAT
1 40958U 15057A   26027.26283767  .00001461  00000-0  21589-3 0  9992
2 40958  97.6637  27.6857 0017581  15.0754 345.0977 14.76547637554510
PRATHAM
1 41783U 16059A   26026.99422453  .00001599  00000-0  29221-3 0  9991
2 41783  97.8288  30.1075 0030311 310.2165  49.6389 14.66947175498818
ALSAT-1N
1 41789U 16059G   26027.27105672  .00002188  00000-0  37957-3 0  9990
2 41789  97.8032  36.9197 0024594 279.5605  80.2823 14.69009340499318
CAS-2T & KS-1Q
1 41847U 16066G   26027.14189783  .00002913  00000-0  41827-3 0  9991
2 41847  98.3967 104.4343 0342966 197.2038 161.7295 14.44301552484430
